{
  "norad_id": 53410,
  "name": "STARLINK-4492",
  "history": [
    {
      "epoch": "2026-03-28T20:28:19.638912Z",
      "apogee_km": 540.6961223139742,
      "perigee_km": 538.8003450445376,
      "latitude_deg": -2.352063853660538e-05,
      "longitude_deg": -105.2550423675446,
      "height_km": 540.5461909092245,
      "semi_major_axis_km": 6917.885233679256,
      "eccentricity": 0.00013702,
      "inclination_deg": 53.2183,
      "raan_deg": 28.0943,
      "arg_perigee_deg": 84.0751,
      "mean_anomaly_deg": 276.0397,
      "mean_motion_rev_day": 15.08838415
    },
    {
      "epoch": "2026-03-29T02:49:52.512960Z",
      "apogee_km": 540.6787799939393,
      "perigee_km": 538.8427699244658,
      "latitude_deg": -4.1602014434574445e-05,
      "longitude_deg": 157.90420873290958,
      "height_km": 540.5218869972465,
      "semi_major_axis_km": 6917.897774959202,
      "eccentricity": 0.0001327,
      "inclination_deg": 53.2178,
      "raan_deg": 26.9017,
      "arg_perigee_deg": 81.5619,
      "mean_anomaly_deg": 278.5523,
      "mean_motion_rev_day": 15.08834312
    },
    {
      "epoch": "2026-03-30T02:40:39.569376Z",
      "apogee_km": 540.907359097796,
      "perigee_km": 538.5649672447462,
      "latitude_deg": 6.926748596217613e-05,
      "longitude_deg": 154.76888630547688,
      "height_km": 540.644501338228,
      "semi_major_axis_km": 6917.873163171271,
      "eccentricity": 0.0001693,
      "inclination_deg": 53.2184,
      "raan_deg": 22.4417,
      "arg_perigee_deg": 90.6362,
      "mean_anomaly_deg": 269.4825,
      "mean_motion_rev_day": 15.08842364
    }
  ]
}